NORAD_CAT_ID,OBJECT_NAME,OBJECT_TYPE,EPOCH,MEAN_MOTION,ECCENTRICITY,INCLINATION,RA_OF_ASC_NODE,ARG_OF_PERICENTER,MEAN_ANOMALY,BSTAR,MEAN_MOTION_DOT,MEAN_MOTION_DDOT,TLE_LINE0,TLE_LINE1,TLE_LINE2,SEMIMAJOR_AXIS,PERIOD,APOGEE,PERIGEE,DECAYED
51979.0,STARLINK-3656,PAYLOAD,2022-07-26 14:00:01,15.08838498,0.0002468,53.2152,214.29,47.5426,203.9409,-0.00089575,-0.00014516,0.0,0 STARLINK-3656,1 51979U 22025Z   22207.58334491 -.00014516  00000-0 -89575-3 0  9998,2 51979  53.2152 214.2900 0002468  47.5426 203.9409 15.08838498 22585,6917.885,95.438,541.457,538.043,0.0
51979.0,STARLINK-3656,PAYLOAD,2022-07-26 22:00:00,15.08810992,0.0002359,53.2152,212.792,52.5475,210.5299,0.0024327,0.00038611,0.0,0 STARLINK-3656,1 51979U 22025Z   22207.91667824  .00038611  00000-0  24327-2 0  9997,2 51979  53.2152 212.7920 0002359  52.5475 210.5299 15.08810992  1306,6917.969,95.439,541.466,538.202,0.0
51979.0,STARLINK-3656,PAYLOAD,2022-07-27 14:00:01,15.08846913,0.0002543,53.2151,209.8007,48.5544,237.6878,-0.0013660999999999,-0.00021969,0.0,0 STARLINK-3656,1 51979U 22025Z   22208.58334491 -.00021969  00000-0 -13661-2 0  9991,2 51979  53.2151 209.8007 0002543  48.5544 237.6878 15.08846913  1300,6917.859,95.437,541.4830000000002,537.965,0.0
51979.0,STARLINK-3656,PAYLOAD,2022-07-27 16:00:00,15.08852098,0.0002523,53.2152,209.426,49.8396,329.2999,-0.002318,-0.00037005,0.0,0 STARLINK-3656,1 51979U 22025Z   22208.66667824 -.00037005  00000-0 -23180-2 0  9994,2 51979  53.2152 209.4260 0002523  49.8396 329.2999 15.08852098 22749,6917.843000000003,95.437,541.4540000000002,537.9630000000002,0.0
51979.0,STARLINK-3656,PAYLOAD,2022-07-27 22:00:00,15.08816768,0.0002460999999999,53.2153,208.3027,53.6867,244.1565,0.0025724,0.00040864,0.0,0 STARLINK-3656,1 51979U 22025Z   22208.91667824  .00040864  00000-0  25724-2 0  9993,2 51979  53.2153 208.3027 0002461  53.6867 244.1565 15.08816768  1303,6917.951,95.439,541.519,538.114,0.0
51979.0,STARLINK-3656,PAYLOAD,2022-07-28 08:00:01,15.08833855,0.0002692,53.2156,206.4341,50.7196,351.6121,0.00034453,5.198e-05,0.0,0 STARLINK-3656,1 51979U 22025Z   22209.33334491  .00005198  00000-0  34453-3 0  9992,2 51979  53.2156 206.4341 0002692  50.7196 351.6121 15.08833855 22843,6917.899,95.438,541.626,537.9019999999998,0.0
51979.0,STARLINK-3656,PAYLOAD,2022-07-28 14:00:01,15.08855879,0.0002647,53.2155,205.3113,49.7231,271.2957,-0.0016994,-0.00027246,0.0,0 STARLINK-3656,1 51979U 22025Z   22209.58334491 -.00027246  00000-0 -16994-2 0  9998,2 51979  53.2155 205.3113 0002647  49.7231 271.2957 15.08855879  1307,6917.831999999999,95.437,541.528,537.866,0.0
51979.0,STARLINK-3656,PAYLOAD,2022-07-28 22:00:00,15.08824803,0.0002573999999999,53.2159,203.8134,54.8878,277.73900000000003,0.0025799,0.00040994,0.0,0 STARLINK-3656,1 51979U 22025Z   22209.91667824  .00040994  00000-0  25799-2 0  9990,2 51979  53.2159 203.8134 0002574  54.8878 277.7390 15.08824803  1305,6917.927,95.439,541.573,538.011,0.0
51979.0,STARLINK-3656,PAYLOAD,2022-07-29 14:00:01,15.08864288,0.0002742,53.2162,200.8219,51.3477,304.4718,-0.001967,-0.0003148,0.0,0 STARLINK-3656,1 51979U 22025Z   22210.58334491 -.00031480  00000-0 -19670-2 0  9999,2 51979  53.2162 200.8219 0002742  51.3477 304.4718 15.08864288 23031,6917.806,95.436,541.568,537.774,0.0
51979.0,STARLINK-3656,PAYLOAD,2022-07-29 22:00:00,15.08835318,0.0002641999999999,53.2166,199.3242,56.2231,311.2113,0.0021826999999999,0.00034617,0.0,0 STARLINK-3656,1 51979U 22025Z   22210.91667824  .00034617  00000-0  21827-2 0  9995,2 51979  53.2166 199.3242 0002642  56.2231 311.2113 15.08835318  1307,6917.895,95.438,541.587,537.932,0.0
51979.0,STARLINK-3656,PAYLOAD,2022-07-30 06:00:00,15.08858344,0.0002774999999999,53.2168,197.8295,52.716,326.3255,-0.0033997,-0.0005402,0.0,0 STARLINK-3656,1 51979U 22025Z   22211.25001157 -.00054020  00000-0 -33997-2 0  9997,2 51979  53.2168 197.8295 0002775  52.7160 326.3255 15.08858344 23132,6917.824000000001,95.436,541.609,537.77,0.0
51979.0,STARLINK-3656,PAYLOAD,2022-07-30 14:00:01,15.08843959,0.0002708,53.2168,196.3326,51.8173,338.8119999999999,-0.0021276,-0.00033996,0.0,0 STARLINK-3656,1 51979U 22025Z   22211.58334491 -.00033996  00000-0 -21276-2 0  9999,2 51979  53.2168 196.3326 0002708  51.8173 338.8120 15.08843959  1301,6917.868,95.437,541.607,537.86,0.0
51979.0,STARLINK-3656,PAYLOAD,2022-07-30 22:00:00,15.08816738,0.0002614,53.2172,194.8351,56.9751,345.2423,0.0020452,0.00032392,0.0,0 STARLINK-3656,1 51979U 22025Z   22211.91667824  .00032392  00000-0  20452-2 0  9997,2 51979  53.2172 194.8351 0002614  56.9751 345.2423 15.08816738 23230,6917.951,95.439,541.625,538.008,0.0
51979.0,STARLINK-3656,PAYLOAD,2022-07-31 14:00:01,15.08849707,0.0002725,53.2172,191.8436,54.1686,11.2106,-0.0021725,-0.00034709,0.0,0 STARLINK-3656,1 51979U 22025Z   22212.58334491 -.00034709  00000-0 -21725-2 0  9992,2 51979  53.2172 191.8436 0002725  54.1686  11.2106 15.08849707 23332,6917.851,95.437,541.601,537.831,0.0
51979.0,STARLINK-3656,PAYLOAD,2022-07-31 22:00:00,15.08826622,0.0002641999999999,53.2175,190.3463,59.146,17.8256,0.0016347999999999,0.00025817,0.0,0 STARLINK-3656,1 51979U 22025Z   22212.91667824  .00025817  00000-0  16348-2 0  9991,2 51979  53.2175 190.3463 0002642  59.1460  17.8256 15.08826622  1304,6917.920999999999,95.438,541.614,537.9590000000002,0.0
51979.0,STARLINK-3656,PAYLOAD,2022-08-01 06:00:00,15.08837192,0.0002801,53.2175,188.8519,55.938,32.6257,-0.00045181,-7.472e-05,0.0,0 STARLINK-3656,1 51979U 22025Z   22213.25001157 -.00007472  00000-0 -45181-3 0  9997,2 51979  53.2175 188.8519 0002801  55.9380  32.6257 15.08837192 23449,6917.889,95.438,541.692,537.816,0.0
51979.0,STARLINK-3656,PAYLOAD,2022-08-01 14:00:01,15.08854223,0.0002735,53.2172,187.3547,56.7953,43.3538,-0.0021343,-0.00034111,0.0,0 STARLINK-3656,1 51979U 22025Z   22213.58334491 -.00034111  00000-0 -21343-2 0  9996,2 51979  53.2172 187.3547 0002735  56.7953  43.3538 15.08854223  1308,6917.837,95.437,541.594,537.81,0.0
51979.0,STARLINK-3656,PAYLOAD,2022-08-01 22:00:00,15.08836682,0.0002683999999999,53.2174,185.8576,61.5651,50.181,0.0011371999999999,0.00017856,0.0,0 STARLINK-3656,1 51979U 22025Z   22213.91667824  .00017856  00000-0  11372-2 0  9998,2 51979  53.2174 185.8576 0002684  61.5651  50.1810 15.08836682  1305,6917.891,95.438,541.612,537.899,0.0
51979.0,STARLINK-3656,PAYLOAD,2022-08-02 06:00:02,15.08838817,0.0002831,53.2172,184.3631,58.0619,65.3489,4.8925e-05,4.9000000000000005e-06,0.0,0 STARLINK-3656,1 51979U 22025Z   22214.25002315  .00000490  00000-0  48925-4 0  9996,2 51979  53.2172 184.3631 0002831  58.0619  65.3489 15.08838817 23595,6917.884,95.438,541.707,537.7909999999998,0.0
51979.0,STARLINK-3656,PAYLOAD,2022-08-02 14:00:01,15.08858369,0.0002766,53.2169,182.8659,59.3205,75.6174,-0.0020866,-0.00033362,0.0,0 STARLINK-3656,1 51979U 22025Z   22214.58334491 -.00033362  00000-0 -20866-2 0  9993,2 51979  53.2169 182.8659 0002766  59.3205  75.6174 15.08858369  1300,6917.824000000001,95.436,541.6030000000002,537.776,0.0
51979.0,STARLINK-3656,PAYLOAD,2022-08-03 14:00:01,15.088615099999998,0.0002744,53.2166,178.3769,60.4156,109.3356,-0.0040656,-0.00064457,0.0,0 STARLINK-3656,1 51979U 22025Z   22215.58334491 -.00064457  00000-0 -40656-2 0  9992,2 51979  53.2166 178.3769 0002744  60.4156 109.3356 15.08861510 23799,6917.815,95.436,541.578,537.781,0.0
51979.0,STARLINK-3656,PAYLOAD,2022-08-03 22:00:01,15.08830499,0.0002733,53.2168,176.8799,64.0862,117.3181,0.00044551,6.807e-05,0.0,0 STARLINK-3656,1 51979U 22025Z   22215.91668981  .00006807  00000-0  44551-3 0  9995,2 51979  53.2168 176.8799 0002733  64.0862 117.3181 15.08830499  1309,6917.909000000002,95.438,541.665,537.884,0.0
51979.0,STARLINK-3656,PAYLOAD,2022-08-04 06:00:00,15.0881864,0.0002878,53.2167,175.3854,59.5923,133.34,0.0013675999999999,0.00021532,0.0,0 STARLINK-3656,1 51979U 22025Z   22216.25001157  .00021532  00000-0  13676-2 0  9994,2 51979  53.2167 175.3854 0002878  59.5923 133.3400 15.08818640 23895,6917.946,95.439,541.802,537.82,0.0
51979.0,STARLINK-3656,PAYLOAD,2022-08-04 14:00:01,15.08846386,0.0002785,53.2166,173.8878,61.3814,143.1261,-0.0017155999999999,-0.00027495,0.0,0 STARLINK-3656,1 51979U 22025Z   22216.58334491 -.00027495  00000-0 -17156-2 0  9993,2 51979  53.2166 173.8878 0002785  61.3814 143.1261 15.08846386  1304,6917.861,95.437,541.6519999999998,537.799,0.0
51979.0,STARLINK-3656,PAYLOAD,2022-08-04 22:00:00,15.08844276,0.0002831,53.2168,172.3911,65.1017,150.9942,0.00019036,2.743e-05,0.0,0 STARLINK-3656,1 51979U 22025Z   22216.91667824  .00002743  00000-0  19036-3 0  9996,2 51979  53.2168 172.3911 0002831  65.1017 150.9942 15.08844276  1305,6917.8669999999975,95.437,541.691,537.774,0.0
51979.0,STARLINK-3656,PAYLOAD,2022-08-05 06:00:02,15.08827916,0.000298,53.2167,170.8963,60.7666,166.9994,0.0019471,0.00030827,0.0,0 STARLINK-3656,1 51979U 22025Z   22217.25002315  .00030827  00000-0  19471-2 0  9998,2 51979  53.2167 170.8963 0002980  60.7666 166.9994 15.08827916 24042,6917.917,95.438,541.844,537.721,0.0
51979.0,STARLINK-3656,PAYLOAD,2022-08-05 14:00:01,15.08859214,0.0002856999999999,53.2168,169.3985,62.9722,176.3862,-0.0013862,-0.00022295,0.0,0 STARLINK-3656,1 51979U 22025Z   22217.58335648 -.00022295  00000-0 -13862-2 0  9992,2 51979  53.2168 169.3985 0002857  62.9722 176.3862 15.08859214  1309,6917.821999999999,95.436,541.663,537.71,0.0
51979.0,STARLINK-3656,PAYLOAD,2022-08-05 22:00:00,15.08868399,0.0002842999999999,53.217,167.90200000000004,65.9086,184.9932,-0.0028909,-0.00046043,0.0,0 STARLINK-3656,1 51979U 22025Z   22217.91667824 -.00046043  00000-0 -28909-2 0  9998,2 51979  53.2170 167.9020 0002843  65.9086 184.9932 15.08868399  1304,6917.794,95.436,541.625,537.692,0.0
51979.0,STARLINK-3656,PAYLOAD,2022-08-06 00:00:02,15.08863423,0.0002858,53.217,167.5282,64.3875,279.4823,-0.003243,-0.00051569,0.0,0 STARLINK-3656,1 51979U 22025Z   22218.00002315 -.00051569  00000-0 -32430-2 0  9990,2 51979  53.2170 167.5282 0002858  64.3875 279.4823 15.08863423 24155,6917.809,95.436,541.651,537.697,0.0
